HERMES-3                
1 63835U 25052BR  26068.93751242  .00020316  00000+0  69958-3 0  9995
2 63835  97.3987 324.6131 0007993 112.9583 247.2502 15.30039785 54863
STARLINK-35801          
1 66265U 25247A   26068.59885163  .00019209  00000+0  65932-3 0  9990
2 66265  53.1592 191.5943 0001055  47.6791 312.4299 15.30184206 21024
